[{"OBJECT_NAME":"STARLINK-5241","OBJECT_ID":"2022-141AZ","EPOCH":"2026-03-09T22:51:32.574240","MEAN_MOTION":15.08833711,"ECCENTRICITY":0.0001412,"INCLINATION":53.2197,"RA_OF_ASC_NODE":352.5097,"ARG_OF_PERICENTER":104.364,"MEAN_ANOMALY":255.751,"EPHEMERIS_TYPE":0,"CLASSIFICATION_TYPE":"U","NORAD_CAT_ID":54204,"ELEMENT_SET_NO":999,"REV_AT_EPOCH":18604,"BSTAR":-1.7510616e-5,"MEAN_MOTION_DOT":-5.67e-6,"MEAN_MOTION_DDOT":0},{"OBJECT_NAME":"SL-8 DEB","OBJECT_ID":"1965-020AH","EPOCH":"2026-03-09T21:20:25.012032","MEAN_MOTION":15.12110764,"ECCENTRICITY":0.01461339,"INCLINATION":55.8593,"RA_OF_ASC_NODE":285.3244,"ARG_OF_PERICENTER":198.731,"MEAN_ANOMALY":160.8307,"EPHEMERIS_TYPE":0,"CLASSIFICATION_TYPE":"U","NORAD_CAT_ID":1392,"ELEMENT_SET_NO":999,"REV_AT_EPOCH":8107,"BSTAR":0.0016215192,"MEAN_MOTION_DOT":0.00036476,"MEAN_MOTION_DDOT":0}]
